GLOBALSTAR M023         
1 25621U 99004A   24226.88428234 -.00000051  00000+0  29522-3 0  9992
2 25621  52.0095 269.1686 0010353 168.2072   3.0042 12.62464295177000
GLOBALSTAR M040         
1 25622U 99004B   24226.89820674 -.00000034  00000+0  38880-3 0  9996
2 25622  51.9906 272.8237 0000987  98.0217  73.7830 12.61979259176756
GLOBALSTAR M036         
1 25623U 99004C   24226.67958567  .00000041  00000+0  18005-2 0  9999
2 25623  51.9996 330.8303 0011362 177.4222 330.5721 11.86575271142479
GLOBALSTAR M038         
1 25624U 99004D   24226.97260972 -.00000032  00000+0  52381-3 0  9996
2 25624  51.9945 236.3008 0001877 135.2048 238.7253 12.32505181164494
GLOBALSTAR M022         
1 25649U 99012A   24227.21095179 -.00000077  00000+0  11806-3 0  9991
2 25649  52.0047  45.3937 0001662 289.2733 242.1338 12.02486493139528
GLOBALSTAR M041         
1 25650U 99012B   24227.17075767 -.00000031  00000+0  70709-3 0  9996
2 25650  52.0009 277.5976 0002790  84.0957 276.0197 11.96658874141777
GLOBALSTAR M046         
1 25651U 99012C   24226.71963946 -.00000051  00000+0  41798-3 0  9999
2 25651  52.0077   8.0877 0002137  19.9264 353.1110 12.09396297146469
GLOBALSTAR M037         
1 25652U 99012D   24226.92663917 -.00000106  00000+0 -10741-4 0  9995
2 25652  52.0015  39.7669 0001351 200.8144 323.7815 12.62414008172461
